{
  "type": "FeatureCollection",
  "features": [
    {
      "type": "Feature",
      "geometry": {
        "type": "LineString",
        "coordinates": [
          [
            4.359802007675172,
            45.408717192451846
          ],
          [
            4.360789060592652,
            45.408724724573986
          ],
          [
            4.361110925674439,
            45.40842343890466
          ],
          [
            4.3620550632476816,
            45.40864940330731
          ],
          [
            4.36383605003357,
            45.408506292623926
          ],
          [
            4.364436864852906,
            45.408001636267784
          ],
          [
            4.365295171737672,
            45.40674374184456
          ],
          [
            4.365112781524659,
            45.405011266543326
          ],
          [
            4.364275932312013,
            45.4039717558587
          ],
          [
            4.361808300018311,
            45.40402448512205
          ],
          [
            4.359362125396729,
            45.404386055887855
          ],
          [
            4.359362125396729,
            45.404386055887855
          ],
          [
            4.359362125396729,
            45.404386055887855
          ]
        ]
      },
      "properties": {
        "type_points": "Route_barrée",
        "activation": "20251026-051911",
        "date_heure": "2025-11-09T12:30",
        "redacteur": "glurpss plouf",
        "commentaire": "",
        "longueur_m": 1278.8083159829666
      }
    },
    {
      "type": "Feature",
      "geometry": {
        "type": "LineString",
        "coordinates": [
          [
            4.361819028854371,
            45.407195683184824
          ],
          [
            4.361529350280763,
            45.40720321550987
          ],
          [
            4.360027313232423,
            45.406932051175765
          ],
          [
            4.358299970626832,
            45.40598296575547
          ],
          [
            4.3589115142822275,
            45.40528997267799
          ],
          [
            4.360198974609376,
            45.40475515699101
          ],
          [
            4.361872673034669,
            45.40461956911089
          ],
          [
            4.363385438919068,
            45.40525230976718
          ],
          [
            4.363363981246949,
            45.40632192666469
          ],
          [
            4.3627309799194345,
            45.40708269818876
          ],
          [
            4.361861944198609,
            45.40720321550987
          ],
          [
            4.361861944198609,
            45.40720321550987
          ]
        ]
      },
      "properties": {
        "type_points": "Route_innondée",
        "activation": "20251026-051911",
        "date_heure": "2025-11-09T12:41",
        "redacteur": "Grégory Gimenez",
        "commentaire": "",
        "longueur_m": 1077.443042531755
      }
    },
    {
      "type": "Feature",
      "geometry": {
        "type": "LineString",
        "coordinates": [
          [
            4.341702461242677,
            45.395466634854884
          ],
          [
            4.3430542945861825,
            45.395632380178625
          ],
          [
            4.345993995666505,
            45.39603920754866
          ],
          [
            4.34861183166504,
            45.39647616701707
          ],
          [
            4.350779056549073,
            45.39662684191241
          ],
          [
            4.351680278778077,
            45.3964912345247
          ],
          [
            4.351916313171388,
            45.396265221488655
          ],
          [
            4.3538904190063485,
            45.396596706965475
          ],
          [
            4.354319572448731,
            45.39757608451442
          ],
          [
            4.355285167694093,
            45.39844997630411
          ],
          [
            4.356808662414552,
            45.39929372106984
          ],
          [
            4.359490871429444,
            45.40093597386028
          ],
          [
            4.359490871429444,
            45.40093597386028
          ]
        ]
      },
      "properties": {
        "type_points": "Route_barrée",
        "activation": "20251026-051911",
        "date_heure": "2025-11-14T13:10",
        "redacteur": "",
        "commentaire": "",
        "longueur_m": 1649.141437846563
      }
    }
  ]
}